SL-8 R/B                
1 08459U 75112B   26171.44905962  .00000198  00000+0  73575-4 0  9996
2 08459  74.0589 189.8731 0016840 256.4490 103.4789 14.38247985646646
SL-3 R/B                
1 10114U 77057B   26171.44932051  .00009524  00000+0  18440-3 0  9997
2 10114  97.5846 348.1477 0005481 270.3163  89.7459 15.47942080684215
SEASAT 1                
1 10967U 78064A   26171.42130973  .00000153  00000+0  81052-4 0  9992
2 10967 108.0177 341.0778 0001736 240.3380 119.7593 14.46245232521361
SL-14 R/B               
1 11267U 79011B   26170.99228781  .00000382  00000+0  35046-4 0  9991
2 11267  82.5237 359.4916 0017501  77.0548 283.2625 14.92016398544035
SL-8 R/B                
1 11574U 79089B   26171.39537659  .00000153  00000+0  54296-4 0  9993
2 11574  74.0692 260.9186 0015063  43.4442 316.7899 14.42405235450918
SL-14 R/B               
1 11672U 80005B   26171.07268606  .00000330  00000+0  30691-4 0  9990
2 11672  82.5137 210.1032 0015764 176.2237 183.9104 14.91030703491744
SL-8 R/B                
1 12139U 81003B   26171.32422449  .00015379  00000+0  37423-3 0  9991
2 12139  82.9369 194.8563 0250699 180.2463 179.8693 15.14312178330198
SL-3 R/B                
1 12465U 81046B   26171.42929031  .00009505  00000+0  20483-3 0  9992
2 12465  81.2300 166.1632 0018212  27.0043 333.2144 15.44255582454272
SL-3 R/B                
1 12904U 81103B   26171.40624712  .00003813  00000+0  16417-3 0  9998
2 12904  81.1583  92.8515 0011585 304.2957  55.7178 15.22306802988854
SL-3 R/B                
1 13068U 82013B   26171.37677220  .00003004  00000+0  12659-3 0  9995
2 13068  81.1737  40.3138 0021614 189.9619 170.1188 15.22803669419971
SL-3 R/B                
1 13154U 82039B   26171.41316006  .00002886  00000+0  17199-3 0  9997
2 13154  81.1452  97.3585 0028423 345.3909  14.6491 15.10556543397140
SL-3 R/B                
1 13403U 82079B   26171.39525799  .00003980  00000+0  15341-3 0  9999
2 13403  81.1459  71.6927 0023963 174.6099 185.5398 15.25810833393350
SL-14 R/B               
1 13553U 82092B   26171.43828432  .00000281  00000+0  28765-4 0  9991
2 13553  82.5679  45.2613 0019372 324.0622 209.2871 14.86749668344197
